NORAD_CAT_ID,OBJECT_NAME,OBJECT_TYPE,EPOCH,MEAN_MOTION,ECCENTRICITY,INCLINATION,RA_OF_ASC_NODE,ARG_OF_PERICENTER,MEAN_ANOMALY,BSTAR,MEAN_MOTION_DOT,MEAN_MOTION_DDOT,TLE_LINE0,TLE_LINE1,TLE_LINE2,SEMIMAJOR_AXIS,PERIOD,APOGEE,PERIGEE,DECAYED
53031.0,STARLINK-4137,PAYLOAD,2022-12-26 03:40:04,15.08840871,0.0001658,53.2181,284.3854,45.3995,314.7132,-8.9545e-06,-4.31e-06,0.0,0 STARLINK-4137,1 53031U 22076AX  22360.15282795 -.00000431  00000-0 -89545-5 0  9997,2 53031  53.2181 284.3854 0001658  45.3995 314.7132 15.08840871 27038,6917.878000000002,95.437,540.89,538.596,0.0
53031.0,STARLINK-4137,PAYLOAD,2022-12-26 11:36:59,15.08845076,0.0001555,53.2181,282.8986,47.8961,312.2163,-1.1662e-06,-3.07e-06,0.0,0 STARLINK-4137,1 53031U 22076AX  22360.48402436 -.00000307  00000-0 -11662-5 0  9996,2 53031  53.2181 282.8986 0001555  47.8961 312.2163 15.08845076 26615,6917.865,95.437,540.806,538.654,0.0
53031.0,STARLINK-4137,PAYLOAD,2022-12-27 05:06:14,15.08835829,0.000161,53.2181,279.6276,42.9618,317.15,0.00014747,2.059e-05,0.0,0 STARLINK-4137,1 53031U 22076AX  22361.21266661  .00002059  00000-0  14747-3 0  9995,2 53031  53.2181 279.6276 0001610  42.9618 317.1500 15.08835829 27196,6917.893,95.438,540.872,538.644,0.0
53031.0,STARLINK-4137,PAYLOAD,2022-12-28 04:57:00,15.0884419,0.0001598,53.2181,275.1678,59.2575,300.8574,0.00016844,2.394e-05,0.0,0 STARLINK-4137,1 53031U 22076AX  22362.20625502  .00002394  00000-0  16844-3 0  9990,2 53031  53.2181 275.1678 0001598  59.2575 300.8574 15.08844190 27349,6917.868,95.437,540.8380000000002,538.627,0.0
53031.0,STARLINK-4137,PAYLOAD,2022-12-29 04:47:48,15.08840583,0.0001213,53.2177,270.7077,50.6371,309.4728,-8.916700000000001e-05,-1.707e-05,0.0,0 STARLINK-4137,1 53031U 22076AX  22363.19986372 -.00001707  00000-0 -89167-4 0  9992,2 53031  53.2177 270.7077 0001213  50.6371 309.4728 15.08840583 27495,6917.879,95.438,540.5830000000002,538.904,0.0
53031.0,STARLINK-4137,PAYLOAD,2022-12-29 11:09:21,15.08833814,0.0001303,53.2174,269.5181,50.1499,309.9608,-0.00014215,-2.549e-05,0.0,0 STARLINK-4137,1 53031U 22076AX  22363.46483030 -.00002549  00000-0 -14215-3 0  9991,2 53031  53.2174 269.5181 0001303  50.1499 309.9608 15.08833814 27536,6917.899,95.438,540.6659999999998,538.863,0.0
53031.0,STARLINK-4137,PAYLOAD,2022-12-30 03:03:12,15.08841995,0.0001527,53.2159,266.5445,57.3494,302.7645,-3.0236e-05,-7.69e-06,0.0,0 STARLINK-4137,1 53031U 22076AX  22364.12722258 -.00000769  00000-0 -30236-4 0  9997,2 53031  53.2159 266.5445 0001527  57.3494 302.7645 15.08841995 27633,6917.874,95.437,540.7959999999998,538.683,0.0
53031.0,STARLINK-4137,PAYLOAD,2022-12-31 02:53:58,15.08840323,0.0001685,53.2149,262.0833,55.1799,304.9352,0.00022703,3.327e-05,0.0,0 STARLINK-4137,1 53031U 22076AX  22365.12081271  .00003327  00000-0  22703-3 0  9991,2 53031  53.2149 262.0833 0001685  55.1799 304.9352 15.08840323 27782,6917.879,95.438,540.91,538.5790000000002,0.0
53031.0,STARLINK-4137,PAYLOAD,2022-12-31 10:50:53,15.08845032,0.0001675,53.2147,260.5969,56.2901,303.8251,0.00018007,2.579e-05,0.0,0 STARLINK-4137,1 53031U 22076AX  22365.45201089  .00002579  00000-0  18007-3 0  9998,2 53031  53.2147 260.5969 0001675  56.2901 303.8251 15.08845032 27361,6917.865,95.437,540.889,538.571,0.0
53031.0,STARLINK-4137,PAYLOAD,2023-01-01 02:44:46,15.08834666,0.0001546,53.2161,257.623,55.4634,304.6504,-4.7684e-05,-1.047e-05,0.0,0 STARLINK-4137,1 53031U 22076AX  23001.11442600 -.00001047  00000-0 -47684-4 0  9990,2 53031  53.2161 257.6230 0001546  55.4634 304.6504 15.08834666 27930,6917.897,95.438,540.831,538.692,0.0
53031.0,STARLINK-4137,PAYLOAD,2023-01-01 17:03:14,15.08843431,0.0001629999999999,53.2168,254.946,57.3787,302.7362,-0.00015379,-2.735e-05,0.0,0 STARLINK-4137,1 53031U 22076AX  23001.71058702 -.00002735  00000-0 -15379-3 0  9992,2 53031  53.2168 254.9460 0001630  57.3787 302.7362 15.08843431 27555,6917.87,95.437,540.863,538.607,0.0
53031.0,STARLINK-4137,PAYLOAD,2023-01-02 02:35:33,15.08843812,0.0001675,53.2166,253.1631,55.0683,305.0466,-0.00013327,-2.409e-05,0.0,0 STARLINK-4137,1 53031U 22076AX  23002.10802516 -.00002409  00000-0 -13327-3 0  9995,2 53031  53.2166 253.1631 0001675  55.0683 305.0466 15.08843812 28086,6917.869000000002,95.437,540.8919999999998,538.575,0.0
53031.0,STARLINK-4137,PAYLOAD,2023-01-02 16:54:02,15.08820722,0.0001621999999999,53.2163,250.4871,54.9326,305.1818,-4.051e-06,-3.52e-06,0.0,0 STARLINK-4137,1 53031U 22076AX  23002.70419689 -.00000352  00000-0 -40510-5 0  9997,2 53031  53.2163 250.4871 0001622  54.9326 305.1818 15.08820722 27708,6917.939,95.439,540.9259999999998,538.682,0.0
53031.0,STARLINK-4137,PAYLOAD,2023-01-02 23:15:35,15.08816335,0.0001626999999999,53.2164,249.2974,55.2857,304.8288,-4.029e-05,-9.29e-06,0.0,0 STARLINK-4137,1 53031U 22076AX  23002.96916419 -.00000929  00000-0 -40290-4 0  9992,2 53031  53.2164 249.2974 0001627  55.2857 304.8288 15.08816335 28216,6917.953,95.439,540.943,538.692,0.0
53031.0,STARLINK-4137,PAYLOAD,2023-01-03 08:47:54,15.08824477,0.0001708,53.217,247.5128,56.1225,303.993,2.3968e-06,-2.5e-06,0.0,0 STARLINK-4137,1 53031U 22076AX  23003.36660285 -.00000250  00000-0  23968-5 0  9994,2 53031  53.2170 247.5128 0001708  56.1225 303.9930 15.08824477 27808,6917.928000000001,95.439,540.974,538.611,0.0
53031.0,STARLINK-4137,PAYLOAD,2023-01-03 15:09:27,15.08826171,0.0001651,53.2163,246.3233,55.7308,304.384,2.5634e-05,1.2e-06,0.0,0 STARLINK-4137,1 53031U 22076AX  23003.63156321  .00000120  00000-0  25634-4 0  9991,2 53031  53.2163 246.3233 0001651  55.7308 304.3840 15.08826171 28313,6917.9230000000025,95.438,540.93,538.646,0.0
53031.0,STARLINK-4137,PAYLOAD,2023-01-04 08:38:42,15.08825215,0.0001694,53.2162,243.0523,55.365,304.7501,8.637899999999998e-07,-2.74e-06,0.0,0 STARLINK-4137,1 53031U 22076AX  23004.36021073 -.00000274  00000-0  86379-6 0  9993,2 53031  53.2162 243.0523 0001694  55.3650 304.7501 15.08825215 27956,6917.926,95.438,540.962,538.619,0.0
53031.0,STARLINK-4137,PAYLOAD,2023-01-05 08:29:27,15.08845138,0.0001742,53.2159,238.5919,57.7636,302.3524,0.00020691,3.007e-05,0.0,0 STARLINK-4137,1 53031U 22076AX  23005.35379576  .00003007  00000-0  20691-3 0  9995,2 53031  53.2159 238.5919 0001742  57.7636 302.3524 15.08845138 28578,6917.865,95.437,540.935,538.525,0.0
53031.0,STARLINK-4137,PAYLOAD,2023-01-05 16:26:23,15.08851764,0.0001735,53.2169,237.1045,60.8097,299.3068,0.00013928,1.93e-05,0.0,0 STARLINK-4137,1 53031U 22076AX  23005.68499243  .00001930  00000-0  13928-3 0  9993,2 53031  53.2169 237.1045 0001735  60.8097 299.3068 15.08851764 28156,6917.844,95.437,540.91,538.509,0.0
53031.0,STARLINK-4137,PAYLOAD,2023-01-06 08:20:16,15.08832665,0.0001716,53.2161,234.1304,55.0217,305.0937,4.2831e-05,3.94e-06,0.0,0 STARLINK-4137,1 53031U 22076AX  23006.34740830  .00000394  00000-0  42831-4 0  9997,2 53031  53.2161 234.1304 0001716  55.0217 305.0937 15.08832665 28724,6917.903,95.438,540.955,538.581,0.0
53031.0,STARLINK-4137,PAYLOAD,2023-01-07 00:14:07,15.08836968,0.0001693,53.2163,231.1565,57.8771,302.2385,-0.00010239,-1.917e-05,0.0,0 STARLINK-4137,1 53031U 22076AX  23007.00981248 -.00001917  00000-0 -10239-3 0  9991,2 53031  53.2163 231.1565 0001693  57.8771 302.2385 15.08836968 28356,6917.89,95.438,540.9259999999998,538.5830000000002,0.0
53031.0,STARLINK-4137,PAYLOAD,2023-01-07 20:54:08,15.08838538,0.0001758,53.217,227.2916,58.4056,301.7108,-9.2171e-05,-1.755e-05,0.0,0 STARLINK-4137,1 53031U 22076AX  23007.87093097 -.00001755  00000-0 -92171-4 0  9998,2 53031  53.2170 227.2916 0001758  58.4056 301.7108 15.08838538 28953,6917.885,95.438,540.966,538.534,0.0
53031.0,STARLINK-4137,PAYLOAD,2023-01-08 14:23:18,15.0888111,0.0001776999999999,53.2166,224.0201,53.8547,306.2609,0.0005042,7.754e-05,0.0,0 STARLINK-4137,1 53031U 22076AX  23008.59952398  .00007754  00000-0  50420-3 0  9999,2 53031  53.2166 224.0201 0001777  53.8547 306.2609 15.08881110 29068,6917.755,95.435,540.849,538.39,0.0
53031.0,STARLINK-4137,PAYLOAD,2023-01-08 20:44:52,15.08861403,0.0002066,53.2166,222.8307,63.6112,296.5092,0.00031002,4.652e-05,0.0,0 STARLINK-4137,1 53031U 22076AX  23008.86449826  .00004652  00000-0  31002-3 0  9995,2 53031  53.2166 222.8307 0002066  63.6112 296.5092 15.08861403 29105,6917.815,95.436,541.109,538.251,0.0
53031.0,STARLINK-4137,PAYLOAD,2023-01-08 23:55:39,15.08856592,0.0001196,53.2178,222.2367,31.7084,328.398,0.00023678,3.484e-05,0.0,0 STARLINK-4137,1 53031U 22076AX  23008.99698154  .00003484  00000-0  23678-3 0  9991,2 53031  53.2178 222.2367 0001196  31.7084 328.3980 15.08856592 29120,6917.83,95.437,540.5219999999998,538.867,0.0
53031.0,STARLINK-4137,PAYLOAD,2023-01-09 14:14:09,15.08830623,0.0001885,53.2182,219.5596,55.0595,305.0574,-2.9099000000000007e-06,-3.34e-06,0.0,0 STARLINK-4137,1 53031U 22076AX  23009.59316837 -.00000334  00000-0 -29099-5 0  9991,2 53031  53.2182 219.5596 0001885  55.0595 305.0574 15.08830623 29217,6917.9090000000015,95.438,541.078,538.47,0.0
53031.0,STARLINK-4137,PAYLOAD,2023-01-10 14:04:56,15.08859678,0.0002004,53.2157,215.0993,49.5102,310.6064,-0.00036597,-6.111e-05,0.0,0 STARLINK-4137,1 53031U 22076AX  23010.58676357 -.00006111  00000-0 -36597-3 0  9996,2 53031  53.2157 215.0993 0002004  49.5102 310.6064 15.08859678 29360,6917.82,95.436,541.072,538.299,0.0
53031.0,STARLINK-4137,PAYLOAD,2023-01-11 05:58:48,15.08821881,0.0001985,53.2151,212.1254,43.0971,317.0176,1.6952e-05,-1.8e-07,0.0,0 STARLINK-4137,1 53031U 22076AX  23011.24917539 -.00000018  00000-0  16952-4 0  9993,2 53031  53.2151 212.1254 0001985  43.0971 317.0176 15.08821881 29463,6917.936,95.439,541.174,538.428,0.0
53031.0,STARLINK-4137,PAYLOAD,2023-01-11 18:41:57,15.08781794,0.0002315,53.2149,209.7479,48.0767,312.0422,-0.00043507,-7.195e-05,0.0,0 STARLINK-4137,1 53031U 22076AX  23011.77914057 -.00007195  00000-0 -43507-3 0  9992,2 53031  53.2149 209.7479 0002315  48.0767 312.0422 15.08781794 29543,6918.058000000001,95.441,541.525,538.322,0.0
